2026-132E               
1 69506U 26132E   26164.95816029  .00001978  00000+0  19337-3 0  9999
2 69506  97.6694 228.6931 0002823 327.8572  32.2476 14.93464297   293
2026-132F               
1 69507U 26132F   26164.41540372  .00003170  00000+0  25250-3 0  9993
2 69507  97.6869 228.1362 0010915 319.8335  40.2082 15.01040982   204
